{
  "type": "FeatureCollection",
  "features": [
    {
      "type": "Feature",
      "properties": {
        "norad_id": 66835,
        "name": "STARLINK-35890",
        "group": "last-30-days",
        "lat": -61.63795608795797,
        "lon": 144.39198043521841,
        "alt_km": 379.3141714478288,
        "timestamp": "2025-12-16T23:36:34.924534+00:00",
        "meta_object_name": "STARLINK-35890",
        "meta_object_id": "2025-280Q",
        "meta_epoch": "2025-12-16T06:00:02.999808",
        "meta_mean_motion": 15.67480645,
        "meta_eccentricity": 0.00036067,
        "meta_inclination": 69.9981,
        "meta_ra_of_asc_node": 188.878,
        "meta_arg_of_pericenter": 276.44,
        "meta_mean_anomaly": 199.255,
        "meta_ephemeris_type": 0,
        "meta_classification_type": "U",
        "meta_norad_cat_id": 66835,
        "meta_element_set_no": 999,
        "meta_rev_at_epoch": 346,
        "meta_bstar": -0.020366957,
        "meta_mean_motion_dot": -0.01959881,
        "meta_mean_motion_ddot": 0,
        "tle_line1": "1 66835U 25280Q   25350.25003472 -.01959881  00000+0 -20367-1 0  9994",
        "tle_line2": "2 66835  69.9981 188.8780 0003606 276.4400 199.2550 15.67480645  3460"
      },
      "geometry": {
        "type": "Point",
        "coordinates": [
          144.39198043521841,
          -61.63795608795797
        ]
      }
    },
    {
      "type": "Feature",
      "properties": {
        "norad_id": 66836,
        "name": "STARLINK-35838",
        "group": "last-30-days",
        "lat": -60.283306857628844,
        "lon": 147.16751518644793,
        "alt_km": 379.24323669535806,
        "timestamp": "2025-12-16T23:36:34.924545+00:00",
        "meta_object_name": "STARLINK-35838",
        "meta_object_id": "2025-280R",
        "meta_epoch": "2025-12-16T06:00:02.999808",
        "meta_mean_motion": 15.67484388,
        "meta_eccentricity": 0.00037636,
        "meta_inclination": 69.998,
        "meta_ra_of_asc_node": 188.8752,
        "meta_arg_of_pericenter": 274.6173,
        "meta_mean_anomaly": 202.9912,
        "meta_ephemeris_type": 0,
        "meta_classification_type": "U",
        "meta_norad_cat_id": 66836,
        "meta_element_set_no": 999,
        "meta_rev_at_epoch": 346,
        "meta_bstar": -0.020421939,
        "meta_mean_motion_dot": -0.01964978,
        "meta_mean_motion_ddot": 0,
        "tle_line1": "1 66836U 25280R   25350.25003472 -.01964978  00000+0 -20422-1 0  9990",
        "tle_line2": "2 66836  69.9980 188.8752 0003763 274.6173 202.9912 15.67484388  3462"
      },
      "geometry": {
        "type": "Point",
        "coordinates": [
          147.16751518644793,
          -60.283306857628844
        ]
      }
    },
    {
      "type": "Feature",
      "properties": {
        "norad_id": 66837,
        "name": "STARLINK-35729",
        "group": "last-30-days",
        "lat": -58.876871279344385,
        "lon": 149.71560158943245,
        "alt_km": 379.30264207793516,
        "timestamp": "2025-12-16T23:36:34.924555+00:00",
        "meta_object_name": "STARLINK-35729",
        "meta_object_id": "2025-280S",
        "meta_epoch": "2025-12-16T06:00:02.999808",
        "meta_mean_motion": 15.67485486,
        "meta_eccentricity": 0.00037156,
        "meta_inclination": 69.998,
        "meta_ra_of_asc_node": 188.8725,
        "meta_arg_of_pericenter": 273.9367,
        "meta_mean_anomaly": 205.5888,
        "meta_ephemeris_type": 0,
        "meta_classification_type": "U",
        "meta_norad_cat_id": 66837,
        "meta_element_set_no": 999,
        "meta_rev_at_epoch": 346,
        "meta_bstar": -0.020463539,
        "meta_mean_motion_dot": -0.01968545,
        "meta_mean_motion_ddot": 0,
        "tle_line1": "1 66837U 25280S   25350.25003472 -.01968545  00000+0 -20464-1 0  9991",
        "tle_line2": "2 66837  69.9980 188.8725 0003715 273.9367 205.5888 15.67485486  3468"
      },
      "geometry": {
        "type": "Point",
        "coordinates": [
          149.71560158943245,
          -58.876871279344385
        ]
      }
    },
    {
      "type": "Feature",
      "properties": {
        "norad_id": 66838,
        "name": "STARLINK-35886",
        "group": "last-30-days",
        "lat": -55.930847930493165,
        "lon": 154.2265475135175,
        "alt_km": 379.42822691009314,
        "timestamp": "2025-12-16T23:36:34.924565+00:00",
        "meta_object_name": "STARLINK-35886",
        "meta_object_id": "2025-280T",
        "meta_epoch": "2025-12-16T06:00:02.999808",
        "meta_mean_motion": 15.67488657,
        "meta_eccentricity": 0.0003551,
        "meta_inclination": 69.9981,
        "meta_ra_of_asc_node": 188.8678,
        "meta_arg_of_pericenter": 274.3147,
        "meta_mean_anomaly": 209.0432,
        "meta_ephemeris_type": 0,
        "meta_classification_type": "U",
        "meta_norad_cat_id": 66838,
        "meta_element_set_no": 999,
        "meta_rev_at_epoch": 346,
        "meta_bstar": -0.020541687,
        "meta_mean_motion_dot": -0.01975246,
        "meta_mean_motion_ddot": 0,
        "tle_line1": "1 66838U 25280T   25350.25003472 -.01975246  00000+0 -20542-1 0  9995",
        "tle_line2": "2 66838  69.9981 188.8678 0003551 274.3147 209.0432 15.67488657  3463"
      },
      "geometry": {
        "type": "Point",
        "coordinates": [
          154.2265475135175,
          -55.930847930493165
        ]
      }
    },
    {
      "type": "Feature",
      "properties": {
        "norad_id": 66839,
        "name": "STARLINK-35717",
        "group": "last-30-days",
        "lat": -57.41827295615149,
        "lon": 152.07108597050382,
        "alt_km": 379.26771677001943,
        "timestamp": "2025-12-16T23:36:34.924577+00:00",
        "meta_object_name": "STARLINK-35717",
        "meta_object_id": "2025-280U",
        "meta_epoch": "2025-12-16T06:00:02.999808",
        "meta_mean_motion": 15.67484198,
        "meta_eccentricity": 0.0003713,
        "meta_inclination": 69.9982,
        "meta_ra_of_asc_node": 188.8702,
        "meta_arg_of_pericenter": 275.4183,
        "meta_mean_anomaly": 206.0242,
        "meta_ephemeris_type": 0,
        "meta_classification_type": "U",
        "meta_norad_cat_id": 66839,
        "meta_element_set_no": 999,
        "meta_rev_at_epoch": 346,
        "meta_bstar": -0.020428375,
        "meta_mean_motion_dot": -0.01965461,
        "meta_mean_motion_ddot": 0,
        "tle_line1": "1 66839U 25280U   25350.25003472 -.01965461  00000+0 -20428-1 0  9997",
        "tle_line2": "2 66839  69.9982 188.8702 0003713 275.4183 206.0242 15.67484198  3467"
      },
      "geometry": {
        "type": "Point",
        "coordinates": [
          152.07108597050382,
          -57.41827295615149
        ]
      }
    },
    {
      "type": "Feature",
      "properties": {
        "norad_id": 66840,
        "name": "STARLINK-35837",
        "group": "last-30-days",
        "lat": -54.39538795790001,
        "lon": 156.2387046137692,
        "alt_km": 379.37985254302384,
        "timestamp": "2025-12-16T23:36:34.924588+00:00",
        "meta_object_name": "STARLINK-35837",
        "meta_object_id": "2025-280V",
        "meta_epoch": "2025-12-16T06:00:02.999808",
        "meta_mean_motion": 15.67486878,
        "meta_eccentricity": 0.00036019,
        "meta_inclination": 69.9986,
        "meta_ra_of_asc_node": 188.8659,
        "meta_arg_of_pericenter": 274.3276,
        "meta_mean_anomaly": 210.9471,
        "meta_ephemeris_type": 0,
        "meta_classification_type": "U",
        "meta_norad_cat_id": 66840,
        "meta_element_set_no": 999,
        "meta_rev_at_epoch": 346,
        "meta_bstar": -0.020498024,
        "meta_mean_motion_dot": -0.0197146,
        "meta_mean_motion_ddot": 0,
        "tle_line1": "1 66840U 25280V   25350.25003472 -.01971460  00000+0 -20498-1 0  9992",
        "tle_line2": "2 66840  69.9986 188.8659 0003601 274.3276 210.9471 15.67486878  3466"
      },
      "geometry": {
        "type": "Point",
        "coordinates": [
          156.2387046137692,
          -54.39538795790001
        ]
      }
    },
    {
      "type": "Feature",
      "properties": {
        "norad_id": 66841,
        "name": "STARLINK-35715",
        "group": "last-30-days",
        "lat": -52.82935206713666,
        "lon": 158.10169545692438,
        "alt_km": 379.254440932933,
        "timestamp": "2025-12-16T23:36:34.924602+00:00",
        "meta_object_name": "STARLINK-35715",
        "meta_object_id": "2025-280W",
        "meta_epoch": "2025-12-16T06:00:02.999808",
        "meta_mean_motion": 15.67484234,
        "meta_eccentricity": 0.00036616,
        "meta_inclination": 69.9982,
        "meta_ra_of_asc_node": 188.8638,
        "meta_arg_of_pericenter": 277.6343,
        "meta_mean_anomaly": 209.5579,
        "meta_ephemeris_type": 0,
        "meta_classification_type": "U",
        "meta_norad_cat_id": 66841,
        "meta_element_set_no": 999,
        "meta_rev_at_epoch": 346,
        "meta_bstar": -0.02044226,
        "meta_mean_motion_dot": -0.01966593,
        "meta_mean_motion_ddot": 0,
        "tle_line1": "1 66841U 25280W   25350.25003472 -.01966593  00000+0 -20442-1 0  9993",
        "tle_line2": "2 66841  69.9982 188.8638 0003661 277.6343 209.5579 15.67484234  3464"
      },
      "geometry": {
        "type": "Point",
        "coordinates": [
          158.10169545692438,
          -52.82935206713666
        ]
      }
    }
  ]
}